#dP2024  2 21  0  0  0.00000000      97 __u+U IGS20 FIT  IAC
## 2302 259200.00000000   900.00000000 60361 0.0000000000000
+  119   C06C07C08C09C10C11C12C13C14C16C19C20C21C22C23C24C25
+        C26C27C28C29C30C32C33C34C35C36C37C38C39C40C41C42C43
+        C44C45C46E02E03E04E05E07E08E09E10E11E12E13E14E15E18
+        E19E21E24E25E26E27E30E31E33E34E36G01G02G03G04G05G06
+        G07G08G09G10G11G12G13G14G15G16G17G18G19G20G21G22G23
+        G24G25G26G27G28G29G30G31G32J02J03J04R01R02R03R04R05
+        R07R08R09R11R12R13R14R15R16R17R18R19R20R21R22R24R26
++         7  7  8  7  7  7  7  7  6  7  5  5  5  6  5  6  6
++         5  6  6  6  5  5  6  6  6  6  5  6  7  6  6  6  5
++         6  6  5  4  4  4  4  4  4  4  4  4  4  4  4  4  4
++         4  3  4  4  4  4  4  4  4  4  4  6  3  3  3  3  6
++         3  4  3  3  3  3  3  4  4  3  3  3  3  3  3  3  3
++         3  3  3  3  3  3  3  3  3  9 10 11  8  6  6  7  7
++         6  7  6  6  6  7  7  7  6  7  6  7  7  6  6  7  7
%c M  cc GPS ccc cccc cccc cccc cccc ccccc ccccc ccccc ccccc
%c cc cc ccc ccc cccc cccc cccc cccc ccccc ccccc ccccc ccccc
%f  1.2500000  1.025000000  0.00000000000  0.000000000000000
%f  0.0000000  0.000000000  0.00000000000  0.000000000000000
%i    0    0    0    0      0      0      0      0         0
%i    0    0    0    0      0      0      0      0         0
/* INFORMATION & ANALYSIS CENTER (IAC)            FINAL DATA
/* S/V CLOCKS ARE ALIGNED TO GNSS TIME                      
/* G:C1WC2W R:C1PC2P E:C1XC5X C:C2IC6I J:C1CC2S             
/* PCV:IGS20_2290 OL/AL:FES2004  NONE     YN ORB:CoN CLK:CoN
*  2024 02 21 19 30  0.00000000
PC06  -6624.473122  40005.089284  12146.554599    125.264860
PC07  -8107.770325  26363.135048 -31801.142827   -838.825832
PC08 -20385.261418  29439.110579  22085.083420     20.399162
PC09  -2614.867465  42258.905716   4143.942861   -521.608471
PC10    111.396987  28174.830917 -30951.406922     75.549580
PC11 -13932.887115   6654.816466 -23175.637085    422.574008
PC12 -17364.734883 -13981.649811 -16741.595332    764.476798
PC13 -11554.134389  29643.321451  27683.300948    419.319374
PC14 -24689.102267   5049.760291  12070.018971    242.028848
PC16  -8257.338511  38803.547671  15033.190372   -353.363540
PC19  17616.386580 -10531.194210 -18867.432777   -924.772816
PC20  27437.407532    240.642290  -4979.191288   -185.356238
PC21 -21497.320195 -11901.085084 -13234.249229   -961.785847
PC22  -2937.315606 -15909.016808 -22739.178617   -101.271863
PC23  -6435.058265  23846.642197 -12987.221154   -779.697919
PC24 -20390.029569   4719.516903  18425.097546    905.752061
PC25 -18212.287195  20853.389453   3389.313254    331.768779
PC26 -10595.331058 -12840.010870  22378.723462   -252.486078
PC27  15686.636231  21024.622566   9522.802912    274.454370
PC28   6037.949431  26525.816534  -6223.743089    208.905492
PC29   8757.173194 -16276.385423  20901.287336    244.883106
PC30  17973.128861   4044.729384  20960.374089    -28.098389
PC32  21474.768873  11803.142442  13356.868308   -571.161969
PC33 -17667.883801  10633.254568  18819.619920   -950.657022
PC34 -17643.088449  -2266.656278 -21507.727925    374.360851
PC35  -6915.078088 -26261.534249   6316.722725    428.237162
PC36  18893.995398 -20182.503795  -3833.368018     -6.773933
PC37  10010.840229  13407.651811 -22327.645018   -937.967153
PC38 -25192.322424  30584.920322  14270.881967    138.246225
PC39 -10099.577807  35328.215578  20936.730761     -7.245135
PC40 -12515.729614  19912.122063 -35008.710140    -57.523982
PC41   1977.256753  15919.901268  22890.369459   -894.146369
PC42 -27686.067084  -1190.220276   3475.190031   -452.389815
PC43  -9492.375818  15517.094225 -21179.569887     61.326079
PC44 -16494.995732 -20448.591936  -9370.453597    391.460472
PC45   6411.586020 -23756.892659  13175.586769    -71.544803
PC46  20602.415292  -5665.649339 -17983.340821   -125.729579
PE02    -64.699511  17446.784643 -23921.037043    105.291068
PE03   9986.331850  23080.136054  15603.885157    -95.369892
PE04 -23339.140329 -18055.064205   2352.869789   -332.694340
PE05  -8976.966187  14559.358399  24163.627112   4722.231984
PE07  22990.021797   2910.748469 -18404.932563   -104.997954
PE08  23070.745189  18462.882154  -1654.690447   -227.512734
PE09 -22980.312905  -3096.382819  18409.514583   -344.392088
PE10 -15319.014631  -4855.445993 -24858.760131   -603.727629
PE11 -16753.724920   7453.510444 -23246.323832   3232.227235
PE12 -11877.782536 -15100.005186 -22508.656264   -916.311890
PE13  16673.046116  -6676.190344  23533.520483    -20.264257
PE14 -24868.283204    -31.226363 -20110.548688     45.966933
PE15  11560.973368  15660.030211  22313.964228    -87.112485
PE18  13025.396618  -9465.511171  18758.308341    353.032006
PE19  -7907.601478 -22722.449148 -17231.755912   -570.638028
PE21  19620.832652 -17035.584612  14173.408903   -580.208232
PE24 -28544.464955   6288.955558   4566.050959   -611.041357
PE25 -19927.840489  16922.951434 -13875.751793      1.189892
PE26  11746.405590 -25111.405542  10373.654240    375.483537
PE27  28541.196669  -6637.222437  -4243.091910   -280.519516
PE30  20356.151028   7810.684697 -20045.195720    -20.809909
PE31 -20524.623488  -7553.491496  19940.787150    -16.538373
PE33    623.733058 -28622.333567  -7507.828716      7.941301
PE34   -196.876061  28487.106944   8039.598641    -95.928260
PE36 -11954.651535  24765.476771 -10966.371875   -189.158096
PG01  11817.470893 -20339.023676  11665.289859    170.510109
PG02  14115.163391 -13077.320635  18689.950874   -481.851493
PG03  22827.791941 -12266.593456  -5670.498464    207.706726
PG04  14577.169819  -6640.346517 -21191.865323    297.367028
PG05 -25117.437889   5064.876286  -7341.005511   -162.675538
PG06  -6944.213741 -19895.944625 -16027.418679    397.949597
PG07   5015.035363 -25791.663236   -622.061595    -67.419970
PG08  20466.959280    744.910265  17038.958061   -168.136592
PG09   1935.963769 -16880.346061 -20482.361125     99.898559
PG10   6455.516375  13421.536782  22208.983697      1.126681
PG11 -13122.364716  -8792.598458 -21334.161677   -583.502850
PG12 -23759.643538  10671.474768  -5303.715562   -480.234182
PG13 -20966.578365 -11052.679274  12008.814853    627.634132
PG14  -2039.480288 -15598.021012  21408.567655    331.778595
PG15 -20541.549216   1614.549531  16379.724466    130.093991
PG16  23979.649110   2248.113762 -12027.614256   -357.578559
PG17  -9380.789284 -21278.591921  13112.262145    716.240892
PG18  -5020.326080  25977.960719     59.894265   -560.572018
PG19 -16448.175096 -20739.180520   3722.558168    443.878199
PG20 -19405.813966  -3329.825032 -17689.259470    386.634324
PG21  15224.833033  -6724.844184  20951.206917    134.091586
PG22  -9837.009831 -12866.849018  21429.856734     27.475591
PG23  -7322.494046  16811.571075  19167.007150    161.122936
PG24 -14663.675073  11161.447443  18570.312544   -435.431352
PG25 -15629.979049  16539.913575 -13807.495240    489.272805
PG26  16703.680965   8139.518345 -19249.752472    187.742740
PG27  22648.651507  11987.112523   7511.465009     -6.015884
PG28   6509.820923  21855.695342 -13639.039829   -138.878967
PG29  -4812.402927  15410.027731 -21121.431629   -606.500114
PG30  -2464.424011 -24699.426147   9196.931685   -429.550393
PG31  11642.073339  13435.904338 -19817.712856   -227.839989
PG32  13614.892038  20553.011270  10351.256836   -612.805878
PJ02 -35602.441263  17060.467424 -10165.127257     -2.196697
PJ03 -20636.159992  29399.294885 -17409.615011     -0.230079
PJ04 -25984.513223  28392.041058  23002.078510     50.861646
PR01  20885.907944  10936.507595   9729.792808     77.771356
PR02  23953.934732   4180.772732  -7768.262154    -22.515687
PR03  13618.036004  -5833.026196 -20730.506244     94.952114
PR04  -3927.280402 -12089.832049 -22078.278024    224.427294
PR05 -19270.682288 -12096.660728 -11491.063688    127.271557
PR07 -12705.286333   6352.590669  21219.288419     76.331327
PR08   4250.747224  12256.082667  22033.997145    -74.495432
PR09 -18908.370103   7590.200909  15413.074016    171.263432
PR11  -8793.446718  18229.942158 -15528.975634     33.583458
PR12   8118.879772   7516.177536 -22966.184764     36.994153
PR13  18002.331070  -5495.523839 -17238.770973    -44.584431
PR14  18452.973016 -17585.777504    662.748790     26.085758
PR15   7630.748028 -17805.189856  16605.064100     81.990342
PR16  -7839.672602  -7581.710701  23061.274077     23.451210
PR17   5742.982326 -15668.652722  19314.778197     63.121649
PR18  -2162.525576 -24706.664456   5856.001100    128.550318
PR19  -7876.815214 -22436.389497  -9225.538073   -266.678034
PR20 -10897.792861  -4094.238536 -22679.464975   -108.639642
PR21  -5703.732881  15775.314339 -19206.701477    -78.807630
PR22   1958.782884  25006.664811  -4662.397966    109.229604
PR24  11468.566326   2949.282699  22610.350314    -44.856903
PR26   3250.814689  12004.604370  22291.112442   -197.234389
EOF
